<?xml version="1.0" ?>
<gpx xmlns="http://www.topografix.com/GPX/1/1" xmlns:xsi="http://www.w3.org/2001/XMLSchema-instance" version="1.1" creator="Aigyre Consult" xsi:schemaLocation="http://www.topografix.com/GPX/1/1 http://www.topografix.com/GPX/1/1/gpx.xsd">
  <wpt lon="169.2" lat="-45.05">
    <name>Kawarau River</name>
    <cmt/>
    <desc>Site célèbre pour le saut à l'élastique au-dessus de la rivière Kawarau
---
The Kawarau River is a river in the South Island of New Zealand. It drains Lake Wakatipu in northwestern Otago via the lake's Frankton Arm. The river flows generally eastwards for about 60 kilometres and passes through the steep Kawarau Gorge until it joins Lake Dunstan near Cromwell. Before the construction of the Clyde High Dam, the Kawarau joined the Clutha River / Mata-Au in a spectacular confluence at Cromwell. The Shotover River enters the Kawarau from the north; the Nevis River enters it from the south. With many rapids and strong currents, the river can be dangerous and has claimed many lives. It is popular for bungy jumping and kayaking. A natural bridge, Whatatorere, where the river narrows to 1.2 metres, was important first to early Māori and then to goldminers as the only place the Mata-Au and the Kawarau could be crossed without boats. Māori were heading for the Cardrona Valley to reach Wānaka, and on to the Haast Pass to seek pounamu.
[[https://en.wikipedia.org/wiki/Kawarau_River|Wikipedia]]

{{https://duckduckgo.com//i/778e0d89ca757bec.jpg|403}}</desc>
    <link/>
  </wpt>
  <wpt lon="176.25138888889" lat="-38.137777777778">
    <name>Rotorua</name>
    <cmt/>
    <desc>-Île du Nord- Ville thermale célèbre pour ses activités géothermiques, ses piscines de boue et ses spectacles culturels maoris.
---
Rotorua is a city in the Bay of Plenty Region of New Zealand's North Island. It is sited on the southern shores of Lake Rotorua, from which it takes its name. It is the seat of the Rotorua Lakes District, a territorial authority encompassing Rotorua and several other nearby towns. It has an estimated resident population of 58,900, making it the country's 13th largest urban area, and the Bay of Plenty's second-largest urban area behind Tauranga. Māori first settled in Rotorua in the 14th century, and a thriving pā was established at Ohinemutu by the people who would become Ngāti Whakaue. The city became closely associated with conflict during the Musket Wars of the 1820s. Ohinemutu was invaded by a Ngāpuhi-led coalition in 1823, commanded by Hongi Hika and Pōmare I. In the 19th century early European settlers had an interest in developing Rotorua, due to its unique geothermal activity in Rotorua and its surrounding area.
[[https://en.wikipedia.org/wiki/Rotorua|Wikipedia]]
https://www.rotorualakescouncil.nz
{{https://duckduckgo.com//i/80cd67ed.jpg|360}}</desc>
    <link>https://www.rotorualakescouncil.nz</link>
  </wpt>
  <wpt lon="174.50250599999998" lat="-36.98806820000001">
    <name>Karekare</name>
    <cmt>Karekare</cmt>
    <desc>Plage de sable noir emblématique apparue dans le film &quot;La Leçon de piano&quot;
---
Le karekare est une langue afro-asiatique parlée au Nigeria.
[[https://fr.wikipedia.org/wiki/Karekare|Wikipedia (FR)]]

</desc>
    <link/>
  </wpt>
  <wpt lon="176.54999999999998" lat="-40.35">
    <name/>
    <cmt>Taumata</cmt>
    <desc>Colline portant le nom le plus long au monde
---


</desc>
    <link/>
  </wpt>
  <wpt lon="170.7332869" lat="-45.7828398">
    <name>Taiaroa Head</name>
    <cmt>Otago / Taiaroa Head</cmt>
    <desc>Point d'observation des albatros
---
Taiaroa Head is a headland at the end of the Otago Peninsula in New Zealand, overlooking the mouth of the Otago Harbour. It lies within the city limits of Dunedin. The nearest settlement, Otakou, lies three kilometres to the south. The cape is home to a lighthouse, built in 1864, and a colony of over 100 northern royal albatrosses, which established itself in 1919 – the only such colony on an inhabited mainland. There is also the Royal Albatross Centre.
[[https://en.wikipedia.org/wiki/Taiaroa_Head|Wikipedia]]

{{https://duckduckgo.com//i/c2b26b89.jpg|134}}</desc>
    <link/>
  </wpt>
  <wpt lon="170.141944444444" lat="-43.595">
    <name>Aoraki / Mount Cook</name>
    <cmt>Mont Cook (Aoraki)</cmt>
    <desc>-Alpes du Sud / Île du Sud- 3724m, le plus haut sommet de Nouvelle-Zélande, célèbre pour ses randonnées et son importance dans la culture Maori.
---
Aoraki / Mount Cook is the highest mountain in New Zealand. Its height, as of 2014, is listed as 3,724 metres. It sits in the Southern Alps, the mountain range that runs the length of the South Island. A popular tourist destination, it is also a favourite challenge for mountain climbers. Aoraki / Mount Cook consists of three summits: from south to north, the Low Peak, the Middle Peak and the High Peak. The summits lie slightly south and east of the main divide of the Southern Alps, with the Tasman Glacier to the east and the Hooker Glacier to the southwest. Mount Cook is ranked 10th in the world by topographic isolation.
[[https://en.wikipedia.org/wiki/Aoraki_/_Mount_Cook|Wikipedia]]

{{https://duckduckgo.com//i/a0de0563.jpg|150}}</desc>
    <link/>
  </wpt>
  <wpt lon="169.01745499999998" lat="-44.864896699999996">
    <name>Cardrona</name>
    <cmt>Cardrona</cmt>
    <desc>Station de ski réputée pour ses pistes adaptées à tous les niveaux et ses paysages hivernaux pittoresques.
---
Cardrona est une station de sports d'hiver de l'Île du Sud de la Nouvelle-Zélande.
[[https://fr.wikipedia.org/wiki/Cardrona|Wikipedia (FR)]]
https://www.cardrona.com/
</desc>
    <link>https://www.cardrona.com/</link>
  </wpt>
  <wpt lon="168.83333333333" lat="-45.15">
    <name>The Remarkables</name>
    <cmt/>
    <desc>Station de ski bien connue pour son cadre impressionnant et ses nombreuses pistes.
---
The Remarkables are a mountain range and skifield in Otago in the South Island of New Zealand. Located on the southeastern shore of Lake Wakatipu, the range lives up to its name by rising sharply to create a remarkable backdrop for the waters. The range is clearly visible from the nearby town of Queenstown. The highest point in the range is Single Cone. The adjacent Tapuae-o-Uenuku / Hector Mountains southeast of the Remarkables culminate in Mount Tūwhakarōria. There are a number of small lakes on the mountains including Lake Alta which forms part of the Remarkables Skifield.
[[https://en.wikipedia.org/wiki/The_Remarkables|Wikipedia]]
https://www.theremarkables.co.nz/
{{https://duckduckgo.com//i/1d4402d5.jpg|480}}</desc>
    <link>https://www.theremarkables.co.nz/</link>
  </wpt>
  <wpt lon="174.860115" lat="-36.786742">
    <name>Rangitoto Island</name>
    <cmt/>
    <desc>-Île du Nord- Île volcanique formée par une série d'éruptions, avec des sentiers de randonnée menant à des vues imprenables sur Auckland.
---
Rangitoto Island is a volcanic island in the Hauraki Gulf near Auckland, New Zealand. The 5.5 km wide island is a symmetrical shield volcano cone capped by central scoria cones, reaching a height of 260 m. Rangitoto is the youngest and largest of the approximately 50 volcanoes of the Auckland volcanic field, having erupted in two phases about 1450 CE and 1500 CE and covering an area of 2,311 ha. It is separated from the mainland of Auckland's North Shore by the Rangitoto Channel. Since World War II, it has been linked by a causeway to the much older, non-volcanic Motutapu Island. Rangitoto is Māori for 'Bloody Sky', with the name coming from the full phrase Ngā Rangi-i-totongia-a Tama-te-kapua. Tama-te-kapua was the captain of the Arawa waka and was badly wounded on the island, after having lost a battle with the Tainui iwi at Islington Bay.
[[https://en.wikipedia.org/wiki/Rangitoto_Island|Wikipedia]]

{{https://duckduckgo.com//i/7697366c95bd8e64.jpg|480}}</desc>
    <link/>
  </wpt>
  <wpt lon="170.53472222222" lat="-45.849444444444">
    <name>Baldwin Street</name>
    <cmt/>
    <desc>-Dunedin / Île du Sud- Officiellement reconnue comme la rue la plus pentue du monde par le Livre Guinness des records.
---
Baldwin Street, in Dunedin, New Zealand, is located in the residential suburb of North East Valley, 3.5 kilometres northeast of Dunedin's central business district. Guinness World Records calls it the steepest street in the world, meaning no street gains more altitude in 10 horizontal metres, measured along the street's centreline.
[[https://en.wikipedia.org/wiki/Baldwin_Street|Wikipedia]]

{{https://duckduckgo.com//i/28965e8c600aa37c.jpg|360}}</desc>
    <link/>
  </wpt>
  <wpt lon="173.6666667" lat="-42">
    <name>Kaikoura Ranges</name>
    <cmt>Kaikoura Ranges</cmt>
    <desc>-Nord de Christchurch / Ile du Sud- Chaîne de montagnes offrant des activités telles que la randonnée et l'observation de la faune, notamment des baleines.
---
The Kaikoura Ranges are two parallel ranges of mountains located in the northeast of the South Island of New Zealand. The two ranges are visible from a great distance, including from the southern coast of the North Island.
[[https://en.wikipedia.org/wiki/Kaikoura_Ranges|Wikipedia]]

{{https://duckduckgo.com//i/f65f030e.jpg|599}}</desc>
    <link/>
  </wpt>
  <wpt lon="176.369722" lat="-38.359444">
    <name>Waiotapu</name>
    <cmt/>
    <desc>-Rotorua / Île du Nord- Zone géothermique connue pour ses piscines colorées naturellement et le célèbre Champagne Pool.
---
Waiotapu is an active geothermal area at the southern end of the Okataina Volcanic Centre, just north of the Reporoa caldera, in New Zealand's Taupo Volcanic Zone. It is 27 kilometres south of Rotorua. Due to dramatic geothermal conditions beneath the earth, the area has many hot springs noted for their colourful appearance, in addition to the Lady Knox Geyser, Champagne Pool, Artist's Palette, Primrose Terrace and boiling mud pools. These can mostly be viewed through access by foot, and in addition to a paid and curated experience, naturally forming hot springs appear around the area. The geothermal area covers 18 square kilometres. Prior to European occupation the area was the homeland of the Ngati Whaoa tribe who descended from those on the Arawa waka. The area has a long history as a tourist attraction. While the area has been protected as a scenic reserve since 1931, a tourist operation occupies part of the reserve under a concession.
[[https://en.wikipedia.org/wiki/Waiotapu|Wikipedia]]

{{https://duckduckgo.com//i/4f6625c5.jpg|309}}</desc>
    <link/>
  </wpt>
  <wpt lon="176.369057" lat="-38.359109">
    <name>Champagne Pool</name>
    <cmt>Champagne pool</cmt>
    <desc>- Parc Wai-o-tapu / Rotorua / Île du Nord -  Eaux bouillant bassin au bord jaune
---
Champagne Pool is a prominent geothermal feature within the Waiotapu geothermal area in the North Island of New Zealand. The terrestrial hot spring is located about 30 km southeast of Rotorua and about 50 km northeast of Taupō. The name Champagne Pool is derived from the abundant efflux of carbon dioxide, similar to a glass of bubbling champagne. The hot spring was formed 900 years ago by a hydrothermal eruption, which makes it in geological terms a relatively young system. Its crater is about 65 m in diameter with a maximum depth around 62 m and is filled with an estimated volume of 50,000 m³ of geothermal fluid.
[[https://en.wikipedia.org/wiki/Champagne_Pool|Wikipedia]]

{{https://duckduckgo.com//i/4f6625c5.jpg|309}}</desc>
    <link/>
  </wpt>
  <wpt lon="167.866666666667" lat="-44.6166666666667">
    <name>Milford Sound</name>
    <cmt/>
    <desc>-Southland / Île du Sud- Fjord spectaculaire, connu pour ses croisières panoramiques et sa faune abondante, y compris des phoques et des dauphins.
---
Milford Sound is a fiord in the south west of New Zealand's South Island within Fiordland National Park, Piopiotahi Marine Reserve, and the Te Wahipounamu World Heritage site. It has been judged the world's top travel destination in an international survey and is acclaimed as New Zealand's most famous tourist destination. Rudyard Kipling called it the eighth Wonder of the World. The fiord is most commonly accessed via road by tour coach, with the road terminating at a small village also called Milford Sound.
[[https://en.wikipedia.org/wiki/Milford_Sound|Wikipedia]]

{{https://duckduckgo.com//i/c06d70218a46b375.jpg|745}}</desc>
    <link/>
  </wpt>
  <wpt lon="177.15" lat="-38.75">
    <name>Te Urewera</name>
    <cmt/>
    <desc>Plus grande étendue de forêt native préservée du pays, offrant un refuge pour une biodiversité riche et des randonnées immersives.
---
Te Urewera is an area of mostly forested, sparsely populated rugged hill country in the North Island of New Zealand, a large part of which is within a protected area designated in 2014, that was formerly Te Urewera National Park. Te Urewera is the rohe of Tūhoe, a Māori iwi known for its stance on Māori sovereignty.
[[https://en.wikipedia.org/wiki/Te_Urewera|Wikipedia]]

{{https://duckduckgo.com//i/f6995870.jpg|320}}</desc>
    <link/>
  </wpt>
  <wpt lon="175.0286083" lat="-39.9330715">
    <name>Whanganui</name>
    <cmt>Whanganui</cmt>
    <desc>-Sud / Île du Nord- Fleuve sacré reconnu comme une entité vivante, avec des options de kayak et de découverte culturelle.
---
Le fleuve Whanganui est le troisième plus long cours d'eau de la Nouvelle-Zélande. Il est situé dans la partie sud de l'île du Nord dans la région de Manawatu-Wanganui, il se déverse dans le détroit de Cook, en mer de Tasman.
[[https://fr.wikipedia.org/wiki/Whanganui|Wikipedia (FR)]]

{{https://duckduckgo.com//i/30985fef.jpg|405}}</desc>
    <link/>
  </wpt>
  <wpt lon="174.06472222222" lat="-39.296388888889">
    <name/>
    <cmt/>
    <desc>Volcan en sommeil avec un cône presque parfait, un lieu sacré pour les Maoris et populaire pour la randonnée.
---
Le mont Taranaki ou mont Egmont est une montagne de Nouvelle-Zélande située dans le Sud-Ouest de l'île du Nord, au cœur du parc national d'Egmont. Volcan au repos culminant à 2 518 mètres d'altitude, sa forme conique aux pentes régulières et prononcées est considérée comme une des plus symétriques au monde.
[[https://fr.wikipedia.org/wiki/Mont_Taranaki|Wikipedia (FR)]]

{{https://duckduckgo.com//i/d63be6a5.jpg|360}}</desc>
    <link/>
  </wpt>
  <wpt lon="175.109446" lat="-38.260662">
    <name/>
    <cmt/>
    <desc>-2h Auckland / Île du Nord- Système de grottes où l'on peut observer des vers luisants, offrant des visites en barque dans un cadre féerique.
---
Les grottes de Waitomo sont un ensemble de grottes du district de Waitomo formant une attraction touristique majeure de l'Île du Nord en Nouvelle-Zélande. Le mot « Waitomo » vient de la langue maori, Wai signifiant « eau » et Tomo signifie « doline » ; il peut ainsi être traduit par « l'eau passant par un trou ». Les grottes datent de l'Oligocène. Les grottes les plus célèbres de cet ensemble, sont les grottes de Waitomo Glowwormgrottes de Waitomo Glowworm, réputées pour leur bioluminescence. Les autres grottes principales sont Aranui Cave, Gardner's Gut, Ruakuri Cave, Wiri Lava Cave.
[[https://fr.wikipedia.org/wiki/Grottes_de_Waitomo|Wikipedia (FR)]]
http://www.waitomocaves.com/
{{https://duckduckgo.com//i/7845aeaa.jpg|360}}</desc>
    <link>http://www.waitomocaves.com/</link>
  </wpt>
  <wpt lon="176.4022771" lat="-38.2154964">
    <name/>
    <cmt>Hawiki</cmt>
    <desc>Îles sacrées d'où les Polynésiens situent leur origine, concept culturel Maori profondément ancré dans les traditions de navigation.
---


</desc>
    <link/>
  </wpt>
  <wpt lon="175.6829096" lat="-37.8720905">
    <name/>
    <cmt>Hobbiton</cmt>
    <desc>-2h30 d'Auckland / Île du Nord- Ensemble de décors du film &quot;Le Seigneur des Anneaux&quot;, transformé en attraction touristique.
---


</desc>
    <link/>
  </wpt>
  <wpt lon="167.9" lat="-47">
    <name>Stewart Island</name>
    <cmt/>
    <desc>-Île du Sud- Refuge pour la faune, surtout pour l'observation des kiwis dans leur habitat naturel.
---
Stewart Island is New Zealand's third-largest island, located 30 kilometres south of the South Island, across Foveaux Strait. It is a roughly triangular island with a total land area of 1,746 km². Its 164-kilometre coastline is deeply indented by Paterson Inlet, Port Pegasus, and Mason Bay. The island is generally hilly and densely forested. Flightless birds, including penguins, thrive because there are few introduced predators. Almost all the island is owned by the New Zealand government, and over 80 per cent of the island is set aside as the Rakiura National Park. Stewart Island's economy depends on fishing and summer tourism. Its permanent population was recorded at 408 people in the 2018 census, most of whom live in the settlement of Oban on the eastern side of the island. Ferries connect the settlement to Bluff in the South Island. Stewart Island is part of the Southland District for local government purposes.
[[https://en.wikipedia.org/wiki/Stewart_Island|Wikipedia]]

{{https://duckduckgo.com//i/bc1573133b5d352d.png|370}}</desc>
    <link/>
  </wpt>
  <wpt lon="174.16666666667" lat="-35.2">
    <name>Bay of Islands</name>
    <cmt/>
    <desc>-Northland / Île du Nord- Archipel avec de nombreuses petites îles, réputé pour la voile et l'observation des dauphins.
---
The Bay of Islands is an area on the east coast of the Far North District of the North Island of New Zealand. It is one of the most popular fishing, sailing and tourist destinations in the country, and has been renowned internationally for its big-game fishing since American author Zane Grey publicised it in the 1930s. It is 60 km north-west of the city of Whangārei. Cape Reinga, at the northern tip of the country, is about 210 km by road further to the north-west.
[[https://en.wikipedia.org/wiki/Bay_of_Islands|Wikipedia]]

{{https://duckduckgo.com//i/d9193214.jpg|1233}}</desc>
    <link/>
  </wpt>
  <wpt lon="170.96666666667" lat="-42.716666666667">
    <name>Hokitika</name>
    <cmt/>
    <desc>-Côte Ouest / Île du Sud- Connu pour ses plages où l'on peut trouver du jade et ses nombreux ateliers de sculpture sur jade.
---
Hokitika is a town in the West Coast region of New Zealand's South Island, 40 kilometres south of Greymouth, and close to the mouth of the Hokitika River. It is the seat and largest town in the Westland District. The town's estimated population is 3,120 as of June 2023. On a clear day Aoraki / Mount Cook can clearly be seen from Hokitika's main street.
[[https://en.wikipedia.org/wiki/Hokitika|Wikipedia]]
http://www.hokitika.com/
{{https://duckduckgo.com//i/3145f92f0ccb4a89.jpg|529}}</desc>
    <link>http://www.hokitika.com/</link>
  </wpt>
  <wpt lon="173.55127769999999" lat="-35.6476762">
    <name>Waipoua Forest</name>
    <cmt>Forêt Waipoua</cmt>
    <desc>-Northland / Île du Nord- Domicile des kauris géants, dont les célèbres Te Matua Ngahere et Tane Mahuta.
---
Waipoua Forest is a forest, on the west coast of the Northland Region of New Zealand's North Island. It preserves some of the best examples of kauri forest remaining in New Zealand. It is notable for having two of the largest living kauri trees, Tāne Mahuta and Te Matua Ngahere. The forest was declared a sanctuary in 1952. A community-based volunteer organisation, the Waipoua Forest Trust, helps maintain the forest. The sanctuary is bordered to the south by the 350 hectares Professor W.R McGregor Reserve, named after W. R. McGregor. In the 1940s, McGregor, and others, successfully campaigned to end logging of the forest and to have it declared a sanctuary, a status it achieved in 1952. Today, the forest is a significant drawcard for visitors to Northland, with approximately 200,000 people visiting Tāne Mahuta every year. This has led to concerns about the health of the forest and the spread of kauri dieback disease.
[[https://en.wikipedia.org/wiki/Waipoua_Forest|Wikipedia]]

{{https://duckduckgo.com//i/8dcb82800abd23f1.png|185}}</desc>
    <link/>
  </wpt>
  <wpt lon="175.91666666667" lat="-38.816666666667">
    <name/>
    <cmt/>
    <desc>-Île du Nord- Le plus grand lac du pays, ancien volcan, célèbre pour ses activités nautiques et les chutes de Huka.
---
Le lac Taupo est un lac de la région de Waikato dans l'île du Nord de la Nouvelle-Zélande.
[[https://fr.wikipedia.org/wiki/Lac_Taupo|Wikipedia (FR)]]

{{https://duckduckgo.com//i/5368b0cc.jpg|365}}</desc>
    <link/>
  </wpt>
  <wpt lon="170.525" lat="-43.9">
    <name/>
    <cmt/>
    <desc>-Île du Sud- Lac miroir entouré de montagnes enneigées, populaire pour l'observation des étoiles.
---
Le lac Tekapo est un lac de l'Île du Sud en Nouvelle-Zélande. C'est le deuxième plus grand des trois lacs à peu près parallèles qui s'étendent du nord au sud le long du bord nord du bassin du Mackenzie dans l'île du Sud de la Nouvelle-Zélande. Il couvre une superficie de 83 kilomètres carrés, et se trouve à une altitude de 710 mètres au-dessus du niveau de la mer. Le lac est alimenté à son extrémité nord par les rivières Godley et Macauley, qui prennent leur source dans les Alpes du Sud, au nord. La neige fondue des Alpes du Sud est teintée d'une légère couleur turquoise due au limon glaciaire. C'est ce qui donne au lac Tekapo sa couleur distinctive. À l'est du lac Tekapo se trouve la chaîne des Two Thumb avec le mont Toby, le pic Braun Elwert, le pic Dobson et le mont Maude parmi les montagnes qui surplombent le lac Tekapo. Sur le côté ouest du lac Tekapo. Le Mont John est le plus proche de la ville avec le lac Alexandrina plus au nord et le pic Mistake situé vers la tête du lac.
[[https://fr.wikipedia.org/wiki/Lac_Tekapo|Wikipedia (FR)]]

{{https://duckduckgo.com//i/ef066318.jpg|428}}</desc>
    <link/>
  </wpt>
  <wpt lon="169.963" lat="-43.438">
    <name/>
    <cmt/>
    <desc>-Près du glacier Fox- Réputé pour ses reflets parfaits du Mont Cook et du Mont Tasman.
---
Le lac Matheson est un lac de Nouvelle-Zélande situé dans le district de Westland de la région de West Coast à proximité du glacier Fox. C'est un lac dystrophique.
[[https://fr.wikipedia.org/wiki/Lac_Matheson|Wikipedia (FR)]]

{{https://duckduckgo.com//i/f87b94dc.jpg|405}}</desc>
    <link/>
  </wpt>
  <wpt lon="172.65830259999998" lat="-42.059324">
    <name/>
    <cmt>Blue Lake</cmt>
    <desc>-Lac jugé le plus pur au monde-
---


</desc>
    <link/>
  </wpt>
  <wpt lon="178.4586" lat="-37.772">
    <name>Rangitukia</name>
    <cmt/>
    <desc>-Ville la plus à l'est de l'Île du Nord- Première ville éclairée par le soleil chaque matin.
---
Rangitukia is a small settlement 10 kilometres south of East Cape in the northeast of New Zealand's North Island. It is near the mouth of the Waiapu River. The settlement is an important place in Ngāti Porou and the founding place for Christian missions in the Gisborne District. The Rangitukia cemetery includes the burial ground of Canon Hone Kaa and former Māori All Black George Nēpia. Labour Party MP Cushla Tangaere-Manuel is from Rangitukia.
[[https://en.wikipedia.org/wiki/Rangitukia|Wikipedia]]

</desc>
    <link/>
  </wpt>
  <wpt lon="174.73333333" lat="-39.13333333">
    <name>Whangamomona</name>
    <cmt/>
    <desc>-Île du Nord- Ville indépendante célèbre pour son &quot;passeport&quot; local et située sur la route du monde oublié.
---
Whangamomona is a small township in the Stratford District and Manawatū-Whanganui Region in New Zealand. It lies on State Highway 43, the &quot;Forgotten World Highway&quot;, 65 kilometres north-east of Stratford and 55 kilometres south-west of Ohura. By rail it is 61 kilometres from Stratford on the Stratford-Okahukura railway line.
[[https://en.wikipedia.org/wiki/Whangamomona|Wikipedia]]

{{https://duckduckgo.com//i/27ec2277.jpg|266}}</desc>
    <link/>
  </wpt>
  <wpt lon="172.9284145" lat="-34.7194348">
    <name>Ninety Mile Beach</name>
    <cmt>Ninety Mile Beach</cmt>
    <desc>-Péninsule d'Aupouri / pointe nord de la Nouvelle-Zélande- Une des plages les plus longues du monde, célèbre pour la conduite sur la plage.
---


</desc>
    <link/>
  </wpt>
  <wpt lon="172.679743" lat="-34.420948">
    <name>Cape Reinga</name>
    <cmt>Te Rerenga Wairua (Cape Reinga)</cmt>
    <desc>-Lieu de départ des esprits selon la culture Maori- Spot de surf et dunes de Te Paki.
---
Cape Reinga, and officially Cape Reinga / Te Rerenga Wairua, is the northwesternmost tip of the Aupōuri Peninsula, at the northern end of the North Island of New Zealand. Cape Reinga is more than 100 km north of the nearest small town of Kaitaia. In Māori, Te Rerenga Wairua means the leaping-off place of spirits. Reinga is the Māori word for underworld. Both refer to the Māori belief that the cape is the point where the spirits of the dead enter the underworld. Cape Reinga is on the tentative list of UNESCO waiting to receive World Heritage Site status. As of 2007, the cape is already a favourite tourist attraction, with over 120,000 visitors a year and around 1,300 cars arriving per day during peak season. Visitor numbers are growing by about five percent a year, and the increase is likely to become even more now that the road to the cape is fully sealed.
[[https://en.wikipedia.org/wiki/Cape_Reinga|Wikipedia]]

{{https://duckduckgo.com//i/43630f65.jpg|179}}</desc>
    <link/>
  </wpt>
  <wpt lon="174.972" lat="-39.2709">
    <name>Bridge to Nowhere</name>
    <cmt/>
    <desc>-Village Pipiriki / Île du Nord- Pont historique surplombant la rivière Mangaparua.
---
A bridge to nowhere is a bridge where one or both ends are broken, incomplete, or unconnected to any roads. If it is an overpass or an interchange, the term overpass to nowhere or interchange to nowhere may be used respectively.
[[https://en.wikipedia.org/wiki/Bridge_to_nowhere|Wikipedia]]

{{https://duckduckgo.com//i/e78a9de1.jpg|266}}</desc>
    <link/>
  </wpt>
  <wpt lon="170.82606111111" lat="-45.345275">
    <name>Moeraki Boulders</name>
    <cmt/>
    <desc>-Koekohe beach / baie de Otago / Dunedin / Île du Sud- Grands rochers ronds mystérieux sur la plage.
---
The Moeraki Boulders are unusually large spherical boulders lying along a stretch of Koekohe Beach on the wave-cut Otago coast of New Zealand between Moeraki and Hampden. They occur scattered either as isolated or clusters of boulders within a stretch of beach where they have been protected in a scientific reserve. These boulders are grey-colored septarian concretions, which have been exhumed from the mudstone and bedrock enclosing them and concentrated on the beach by coastal erosion. Especially in recent years, the boulders have been a popular tourist attraction.
[[https://en.wikipedia.org/wiki/Moeraki_Boulders|Wikipedia]]
https://www.moerakiboulders.co.nz
{{https://duckduckgo.com//i/4006d187.jpg|360}}</desc>
    <link>https://www.moerakiboulders.co.nz</link>
  </wpt>
  <wpt lon="168.7394076" lat="-45.021665899999995">
    <name>Queenstown Airport</name>
    <cmt>Aéroport de Queenstown</cmt>
    <desc>-Entre les Remarkables et le lac Wakatipu- L'un des plus belles approches d'atterrissage au monde.
---


</desc>
    <link/>
  </wpt>
  <wpt lon="172.96818888889" lat="-43.804141666667">
    <name>Akaroa</name>
    <cmt/>
    <desc>Ville avec une forte influence française, réputée pour sa beauté pittoresque
---
Akaroa is a small town on Banks Peninsula in the Canterbury Region of the South Island of New Zealand, situated within a harbour of the same name. The name Akaroa is Kāi Tahu Māori for &quot;Long Harbour&quot;, which would be spelled Whangaroa in standard Māori. The area was also named Port Louis-Philippe by French settlers after the reigning French king Louis Philippe I. The town is 84 kilometres by road from Christchurch and is the terminus of State Highway 75. It is set on a sheltered harbour and is overlooked and surrounded by the remnants of an eruptive centre of the miocene Banks Peninsula Volcano. Ōnuku marae, a marae of Ngāi Tahu and its Ōnuku Rūnanga branch, is located in Akaroa. It includes the Karaweko wharenui.
[[https://en.wikipedia.org/wiki/Akaroa|Wikipedia]]
https://www.akaroa.com/
{{https://duckduckgo.com//i/dc071e8cd5fb03f7.jpg|405}}</desc>
    <link>https://www.akaroa.com/</link>
  </wpt>
  <wpt lon="169.818" lat="-46.4481">
    <name/>
    <cmt/>
    <desc>Photo très connue, &quot;phare du bout du monde&quot; avec des otaries à fourrure en bas
---
Le phare de Nugget Point est un phare situé sur Nugget Point, dans la région d' Otago, en Nouvelle-Zélande.
[[https://fr.wikipedia.org/wiki/Phare_de_Nugget_Point|Wikipedia (FR)]]

</desc>
    <link/>
  </wpt>
  <wpt lon="172.677639" lat="-34.426639">
    <name>Cape Reinga Lighthouse</name>
    <cmt>Phare de Cape Reigna</cmt>
    <desc>Plus vieux phare kiwi, situé entre la mer de Tasman et l'océan Pacifique
---
Cape Reinga Lighthouse is a lighthouse at Cape Reinga in the Northland Region of the North Island of New Zealand. It is owned and operated by Maritime New Zealand. The lighthouse is a common New Zealand icon and a popular tourist destination although the lighthouse itself is not open to the public.
[[https://en.wikipedia.org/wiki/Cape_Reinga_Lighthouse|Wikipedia]]

</desc>
    <link/>
  </wpt>
  <wpt lon="167.71666666667" lat="-45.416666666667">
    <name>Te Anau</name>
    <cmt>Te Anau</cmt>
    <desc>-Île du Sud- Grotte aux vers luisants, point de départ pour explorer les fjords.
---
Te Anau is a town in the Southland region of the South Island of New Zealand. In Māori, Te-Anau means the Place of the Swirling Waters. It is on the eastern shore of Lake Te Anau in Fiordland. Te Anau is 155 kilometres north of Invercargill and 171 kilometres to the southwest of Queenstown. Manapouri lies 21 kilometres to the south. Te Anau lies at the southern end of the Milford Road, 117 kilometres to the south of Milford Sound.
[[https://en.wikipedia.org/wiki/Te_Anau|Wikipedia]]
http://www.teanau.net.nz
{{https://duckduckgo.com//i/3012e02b9c90d3bc.jpg|480}}</desc>
    <link>http://www.teanau.net.nz</link>
  </wpt>
  <wpt lon="174.469" lat="-36.95">
    <name>Piha</name>
    <cmt/>
    <desc>-Plage de sable noir avec le grand rocher Lion Rock-
---
Piha est une localité côtière de Nouvelle-Zélande située dans l'Île du Nord, sur la façade ouest de la région d‘Auckland.
[[https://fr.wikipedia.org/wiki/Piha|Wikipedia (FR)]]

{{https://duckduckgo.com//i/6a7ba61c.png|227}}</desc>
    <link/>
  </wpt>
  <wpt lon="174.435" lat="-36.83">
    <name>Muriwai</name>
    <cmt/>
    <desc>-Classée parmi les 5 plus belles plages du monde, célèbre pour ses compétitions mondiales de surf-
---
Muriwai, also called Muriwai Beach, is a coastal community on the west coast of the Auckland Region in the North Island of New Zealand. The black-sand surf beach and surrounding area is a popular recreational area for Aucklanders. The Muriwai Regional Park includes a nesting site for a large colony of gannets. The New Zealand Ministry for Culture and Heritage gives a translation of &quot;water's end&quot; for Muriwai.
[[https://en.wikipedia.org/wiki/Muriwai|Wikipedia]]

{{https://duckduckgo.com//i/47e45d4b16608c95.jpg|480}}</desc>
    <link/>
  </wpt>
  <wpt lon="169.13333333333" lat="-44.5">
    <name/>
    <cmt/>
    <desc>-Île du Sud- Célèbre pour &quot;That Wanaka Tree&quot;, saule pleureur le plus photographié du monde.
---
Le lac Wanaka est un lac de l'île du Sud en Nouvelle-Zélande, située dans la région d'Otago à une altitude de 300 m. Recouvrant 192 km², il est le quatrième plus grand lac de la Nouvelle-Zélande. Sa profondeur maximale est estimée à 300 m.
[[https://fr.wikipedia.org/wiki/Lac_Wanaka|Wikipedia (FR)]]

{{https://duckduckgo.com//i/30d5ec2e.jpg|509}}</desc>
    <link/>
  </wpt>
  <wpt lon="173.2143347" lat="-41.3889454">
    <name>Te Araroa</name>
    <cmt>Te Araroa</cmt>
    <desc>4ème plus long chemin de randonnée au monde, s'étendant de Cape Reinga à Bluff
---
Te Araroa is New Zealand's long distance tramping route, stretching circa 3,000 kilometres along the length of the country's two main islands from Cape Reinga to Bluff. Officially opened in 2011, it is made up of a mixture of previously made tracks and walkways, new tracks, and link sections alongside roads. Tramping the full length of the trail generally takes three to six months.
[[https://en.wikipedia.org/wiki/Te_Araroa|Wikipedia]]
https://www.teararoa.org.nz/
{{https://duckduckgo.com//i/d64a2afa.jpg|202}}</desc>
    <link>https://www.teararoa.org.nz/</link>
  </wpt>
  <wpt lon="176.48866099999998" lat="-39.7756">
    <name/>
    <cmt>Gwavas Garden</cmt>
    <desc>Observation de totara, une espèce d'arbre native
---


</desc>
    <link/>
  </wpt>
  <wpt lon="175.558" lat="-38.594">
    <name>Pureora Forest Park</name>
    <cmt/>
    <desc>Présence du plus grand totara (Pouakani totara)
---
Pureora Forest Park is a 760-square-kilometre protected area in the North Island of New Zealand. Within its rich rainforest are an abundance of 1,000-year-old podocarp trees. It is &quot;recognised as one of the finest rain forests in the world&quot;. Established in 1978, after a series of protests and tree sittings, the park is one of the largest intact tracts of native forest in the North Island and has high conservation value due to the variety of plant life and animal habitats. New Zealand's largest totara tree is located nearby on private land.
[[https://en.wikipedia.org/wiki/Pureora_Forest_Park|Wikipedia]]

{{https://duckduckgo.com//i/4793c028.jpg|266}}</desc>
    <link/>
  </wpt>
  <wpt lon="176.25138888889" lat="-38.137777777778">
    <name>Rotorua</name>
    <cmt>Rotura</cmt>
    <desc>Piscine naturelle à 40°C et geyser d'eau brûlante de plus de 30 mètres
---
Rotorua is a city in the Bay of Plenty Region of New Zealand's North Island. It is sited on the southern shores of Lake Rotorua, from which it takes its name. It is the seat of the Rotorua Lakes District, a territorial authority encompassing Rotorua and several other nearby towns. It has an estimated resident population of 58,900, making it the country's 13th largest urban area, and the Bay of Plenty's second-largest urban area behind Tauranga. Māori first settled in Rotorua in the 14th century, and a thriving pā was established at Ohinemutu by the people who would become Ngāti Whakaue. The city became closely associated with conflict during the Musket Wars of the 1820s. Ohinemutu was invaded by a Ngāpuhi-led coalition in 1823, commanded by Hongi Hika and Pōmare I. In the 19th century early European settlers had an interest in developing Rotorua, due to its unique geothermal activity in Rotorua and its surrounding area.
[[https://en.wikipedia.org/wiki/Rotorua|Wikipedia]]
https://www.rotorualakescouncil.nz
</desc>
    <link>https://www.rotorualakescouncil.nz</link>
  </wpt>
  <wpt lon="175.568611111111" lat="-39.2816666666667">
    <name/>
    <cmt/>
    <desc>-Île du Nord- Volcan actif qui a servi de décor pour plusieurs scènes du film &quot;Le Seigneur des Anneaux&quot;. Il montre des signes d'activité depuis 2016, ce qui a conduit à l'interdiction d'accès au sommet pour des raisons de sécurité. Il est également populaire pour le ski et le snowboard en hiver.
---
Le mont Ruapehu, ou simplement Ruapehu, est un volcan actif de Nouvelle-Zélande inclus dans le parc national de Tongariro et situé dans le centre de l'île du Nord dont il est le point culminant avec 2 797 mètres d'altitude. La montagne comporte les seuls glaciers et les plus grandes pistes de ski de l'île du Nord. Le climat alpin qui règne au sommet de la montagne permet le maintien de neiges éternelles et de petits glaciers autour du lac de cratère.
[[https://fr.wikipedia.org/wiki/Mont_Ruapehu|Wikipedia (FR)]]

{{https://duckduckgo.com//i/94db134c.jpg|420}}</desc>
    <link/>
  </wpt>
  <wpt lon="175.635833333333" lat="-39.1297222222222">
    <name>Mount Tongariro</name>
    <cmt>Tongariro</cmt>
    <desc>Parc national de l'île du Sud, habitat des tussacks et site de plusieurs randonnées célèbres
---
Mount Tongariro is a compound volcano in the Taupō Volcanic Zone of the North Island of New Zealand. It is located to the southwest of Lake Taupō, and is the northernmost of the three active volcanoes that dominate the landscape of the central North Island.
[[https://en.wikipedia.org/wiki/Mount_Tongariro|Wikipedia]]

{{https://duckduckgo.com//i/2f20cdc5.jpg|360}}</desc>
    <link/>
  </wpt>
  <wpt lon="174.78305555556" lat="-36.9">
    <name>Maungakiekie / One Tree Hill</name>
    <cmt>One Tree Hill</cmt>
    <desc>Chanson de U2 en hommage à un ami néo-zélandais, colline d'origine volcanique à -Auckland-
---
Maungakiekie / One Tree Hill is a 182-metre volcanic peak and Tūpuna Maunga in Auckland, New Zealand. It is an important place culturally and archeologically for both Māori and Pākehā. The suburb around the base of the hill is also called One Tree Hill. It is surrounded by the suburbs of Royal Oak to the west, and clockwise, Epsom, Greenlane, Oranga, and Onehunga. The summit provides views across the Auckland area, and allows visitors to see both of Auckland's harbours. The scoria cones of the hill were erupted from three craters – one is intact and two have been breached by lava flows that rafted away part of the side of the scoria cone. Lava flows went in all directions, many towards Onehunga, covering an area of 20 square kilometres, making it the second largest of the Auckland volcanic field, behind Rangitoto Island. The volcano erupted approximately 67,000 years ago.
[[https://en.wikipedia.org/wiki/Maungakiekie_/_One_Tree_Hill|Wikipedia]]
https://www.aucklandcouncil.govt.nz/EN/parksfacilities/premierparks/Pages/onetreehill.aspx
{{https://duckduckgo.com//i/cfa02102.jpg|352}}</desc>
    <link>https://www.aucklandcouncil.govt.nz/EN/parksfacilities/premierparks/Pages/onetreehill.aspx</link>
  </wpt>
  <wpt lon="173.9597954" lat="-41.513552">
    <name>Blenheim</name>
    <cmt>Blenheim</cmt>
    <desc>Festival des vins et gastronomie, réputé pour sa production de sauvignon blanc
---


</desc>
    <link/>
  </wpt>
  <wpt lon="175.199" lat="-41.069">
    <name>Kaitoke Regional Park</name>
    <cmt/>
    <desc>- 45 minutes de Wellington - Parc régional. Décor pour le seigneur des anneaux (Fondcombe)
---
Kaitoke Regional Park is regional park located at Kaitoke, northeast of Upper Hutt, in the Wellington Region of New Zealand's southern North Island. It is administered by Wellington Regional Council, alongside the adjacent Hutt Water Collection Area.
[[https://en.wikipedia.org/wiki/Kaitoke_Regional_Park|Wikipedia]]

{{https://duckduckgo.com//i/905e6341.jpg|266}}</desc>
    <link/>
  </wpt>
  <wpt lon="174.82428679999998" lat="-41.306393899999996">
    <name/>
    <cmt>Weta Cave &amp; Workshop</cmt>
    <desc>-Wellington- Atelier de la compagnie Weta Digital, célèbre pour avoir créé les décors et de nombreux objets des films &quot;Le Seigneur des Anneaux&quot;. C'est un lieu incontournable pour les fans, offrant des visites guidées des coulisses de la fabrication des effets spéciaux et des artefacts cinématographiques.
---


</desc>
    <link/>
  </wpt>
  <wpt lon="176.758" lat="-37.89">
    <name>Matatā</name>
    <cmt>Matata</cmt>
    <desc>-Baie de Plenty, Île du Nord- Petite ville côtière connue pour sa proximité avec un volcan et ses magnifiques plages offrant des opportunités de sports nautiques et de détente en bord de mer.
---
Matatā is a town in the Bay of Plenty in the North Island of New Zealand, 24 kilometres to the north-west of Whakatāne. Much of the town was relocated between the years 2006 and 2021 due to increased natural threats arising from climate change. As an example of forced retreat, Matatā is seen as providing lessons for future actions elsewhere.
[[https://en.wikipedia.org/wiki/Matat%C4%81|Wikipedia]]

{{https://duckduckgo.com//i/1cfcfe4f.jpg|404}}</desc>
    <link/>
  </wpt>
  <wpt lon="168.6958147" lat="-45.0390442">
    <name/>
    <cmt>Deer Park Heights</cmt>
    <desc>-Queenstown / Île du Sud- Offre des vues panoramiques sur le lac Wakatipu, la rivière Kawarau, et les montagnes Remarkables. Cet endroit, non accessible en voiture, attire les randonneurs et les amateurs de photographie. https
---


</desc>
    <link/>
  </wpt>
  <wpt lon="167.6666814" lat="-45.8880418">
    <name>Waiau River</name>
    <cmt>Waiau River</cmt>
    <desc>-Île du Sud- Rivière qui fait partie du décor du Great Walk du Kepler Track. Elle est appréciée pour la pêche à la truite, le kayak et offre des paysages spectaculaires le long de ses rives.
---


</desc>
    <link/>
  </wpt>
  <wpt lon="167.7146134" lat="-45.5071399">
    <name/>
    <cmt>Mount York Road</cmt>
    <desc>-Île du Sud- Offre un point de vue imprenable sur le Kepler Mire, un site écologiquement significatif avec des zones humides uniques, parfait pour les amateurs de nature et d'observation des oiseaux.
---


</desc>
    <link/>
  </wpt>
  <wpt lon="170.89294550000002" lat="-43.5479716">
    <name/>
    <cmt>Mount Sunday (vallée de la Rangitata)</cmt>
    <desc>-Canterbury, Île du Sud- Connue sous le nom d'Edoras dans les films &quot;Le Seigneur des Anneaux&quot;, cette petite montagne est entourée par les Alpes du Sud. Le site offre des vues à couper le souffle et est un lieu de pèlerinage pour les fans de la trilogie.
---


</desc>
    <link/>
  </wpt>
  <wpt lon="169.2" lat="-45.05">
    <name>Kawarau River</name>
    <cmt>Rivière Kawarau</cmt>
    <desc>-Près de Queenstown, Île du Sud- Cette rivière offre des expériences de rafting excitantes avec des rapides de divers niveaux de difficulté. Elle est aussi célèbre pour le Kawarau Bridge, un site historique de saut à l'élastique.
---
The Kawarau River is a river in the South Island of New Zealand. It drains Lake Wakatipu in northwestern Otago via the lake's Frankton Arm. The river flows generally eastwards for about 60 kilometres and passes through the steep Kawarau Gorge until it joins Lake Dunstan near Cromwell. Before the construction of the Clyde High Dam, the Kawarau joined the Clutha River / Mata-Au in a spectacular confluence at Cromwell. The Shotover River enters the Kawarau from the north; the Nevis River enters it from the south. With many rapids and strong currents, the river can be dangerous and has claimed many lives. It is popular for bungy jumping and kayaking. A natural bridge, Whatatorere, where the river narrows to 1.2 metres, was important first to early Māori and then to goldminers as the only place the Mata-Au and the Kawarau could be crossed without boats. Māori were heading for the Cardrona Valley to reach Wānaka, and on to the Haast Pass to seek pounamu.
[[https://en.wikipedia.org/wiki/Kawarau_River|Wikipedia]]

{{https://duckduckgo.com//i/778e0d89ca757bec.jpg|403}}</desc>
    <link/>
  </wpt>
  <wpt lon="176.31666666667" lat="-37.783333333333">
    <name>Te Puke</name>
    <cmt/>
    <desc>-Baie de Plenty, Île du Nord- Surnommée la &quot;Capitale mondiale du kiwi&quot;, cette ville est le centre de l'industrie du kiwi en Nouvelle-Zélande. Les visiteurs peuvent découvrir des vergers, participer à des dégustations de kiwis et visiter le Kiwi 360, une attraction dédiée à ce fruit emblématique.
---
Te Puke is a town located 18 kilometres southeast of Tauranga in the Western Bay of Plenty of New Zealand. It is particularly well known for the cultivation of Kiwifruit. Te Puke is close to Tauranga and Maketu, which are both coastal towns/cities, as well as the small townships of Waitangi, Manoeka, Pongakawa, and Paengaroa. The Tauranga Eastern Link, completed in 2015, moved State Highway 2 away from Te Puke and removed large volumes of traffic from its streets. The town's name comes from the Māori language, and should be pronounced &quot;teh-pook-ee&quot;, not &quot;te-pyook&quot;. It translates to the hill; it is on a hill near the Papamoa Hills.
[[https://en.wikipedia.org/wiki/Te_Puke|Wikipedia]]
https://www.tepukegoodnessgrowshere.co.nz/
{{https://duckduckgo.com//i/1b65e5fd.png|370}}</desc>
    <link>https://www.tepukegoodnessgrowshere.co.nz/</link>
  </wpt>
</gpx>

